1 34127U 93036KY  18212.18900293  .00000424  00000-0  21766-3 0  9999
2 34127  74.1913 120.3696 0139050 341.5993 169.1440 14.13453408486481
1 34128U 93036KZ  18211.72370622  .00000655  00000-0  16495-3 0  9995
2 34128  74.0147  49.1375 0073721 112.5145  15.0414 14.51586779498875
1 34129U 93036LA  18211.87561338 +.00000334 +00000-0 +88824-4 0  9998
2 34129 074.0465 050.4867 0049847 099.1170 261.5636 14.51696080220896
1 34130U 93036LB  18211.78669896 +.00000700 +00000-0 +14325-3 0  9999
2 34130 074.0325 352.9258 0025849 071.3813 289.0158 14.62579475500568
1 34131U 93036LC  18212.08747801  .00001072  00000-0  22555-3 0  9994
2 34131  74.1200  81.2432 0006782   6.0149 150.9065 14.60773630499455
1 34136U 93036LH  18212.50487209  .00000170  00000-0  34196-4 0  9992
2 34136  74.0218 223.8362 0110658 308.4338 205.7533 14.66536023504995
1 34139U 93036LL  18211.98695399  .00000516  00000-0  18109-3 0  9996
2 34139  74.0364 202.1420 0063318 218.4996 172.5669 14.36343279493719
1 34141U 93036LN  18211.51353399  .00000467  00000-0  19218-3 0  9996
2 34141  74.0182 276.9160 0073935 281.4059 139.5495 14.28255920491192
1 34142U 93036LP  18211.63013115 +.00000444 +00000-0 +82667-4 0  9993
2 34142 073.9936 273.0108 0048263 034.6857 117.0156 14.67583383502860
1 34143U 97051DW  18211.94308047 +.00001264 +00000-0 +25354-3 0  9990
2 34143 086.3910 092.5958 0005313 138.5710 279.4649 14.60959406498094
1 34145U 97051DY  18211.81681028 +.00000454 +00000-0 +17049-3 0  9993
2 34145 086.2166 069.3302 0062966 181.7025 178.3963 14.28312544491166
1 34146U 97051DZ  18211.84331384 +.00000225 +00000-0 +70010-4 0  9998
2 34146 086.2872 078.5031 0039726 054.2544 067.8933 14.35967356493874
1 34147U 97051EA  18212.52112295  .00004064  00000-0  53614-3 0  9998
2 34147  86.4350 124.0644 0056580 215.8795 143.8621 14.78693327498072
1 34148U 97051EB  18212.55778467  .00003606  00000-0  25361-3 0  9990
2 34148  86.3862  63.9790 0012463  65.0409 295.2119 15.04702263503589
1 34150U 97051ED  18211.61672852  .00002897  00000-0  61338-3 0  9995
2 34150  86.4843 154.2188 0093917 344.7662  68.4040 14.56183973495702
1 34155U 97051EJ  18211.75206028  .00002097  00000-0  41235-3 0  9999
2 34155  86.4670 134.4538 0051722 178.6560 210.8726 14.61303192497308
1 34159U 97051EN  18212.14969815  .00000209  00000-0  69019-4 0  9991
2 34159  86.3535 107.0597 0033413  65.5530 294.9144 14.32747695493772
1 34160U 97051EP  18211.83061837 +.00001485 +00000-0 +32135-3 0  9990
2 34160 086.4089 114.4082 0037567 304.6962 055.0709 14.57183815496131
1 34174U 87011E   14051.86165142 -.00028900 +00000-0 -11720-1 0  9993
2 34174 065.0017 243.6981 0014115 261.6732 202.4099 14.27570415284468
1 34175U 87011F   15032.26975495 -.00000083 +00000-0 +63358-5 0  9997
2 34175 064.9902 356.1144 0023163 307.9690 051.9302 14.33086415329060
1 34176U 87011G   18211.80531340 -.00000005  00000-0  34363-4 0  9994
2 34176  65.0158  11.5458 0019696 279.3419 145.5856 14.33854237515676
1 34177U 87011H   14149.12619162 +.00001209 +00000-0 +47948-3 0  9993
2 34177 065.0055 332.5521 0015337 233.9900 122.5452 14.32730676297100
1 34185U 92072R   18191.20529765 -.00000617  00000-0 -24253-2 0  9991
2 34185   7.9544 342.6543 7067063 313.7299   6.0689  2.41410495110902
1 34189U 92072V   18064.49344774  .00001912  00000-0  76887-1 0  9996
2 34189   5.3526 352.5780 6510270 131.9856  23.9822  2.90669687133479
1 34191U 92072X   18210.63843115 -.00000117 +00000-0 -12748-2 0  9996
2 34191 007.7806 283.0278 6512882 250.6703 022.1730 02.91987912137614
1 34195U 92072AB  18210.96233791 -.00000105 +00000-0 -23747-3 0  9998
2 34195 005.6479 045.5493 6574709 064.5313 025.0796 02.94657982054735
1 34196U 92072AC  18189.66575546 -.00000078 +00000-0 -57972-2 0  9993
2 34196 007.6488 081.7831 6455887 306.8769 256.6476 02.90582454124167
1 34201U 97070L   13223.53985288 +.01963372 +00000-0 +24252+0 0  9997
2 34201 046.4116 302.8662 4128994 242.4135 070.0282 07.13308270015522
1 34204U 99057RF  18212.38609665  .00010929  00000-0  59496-3 0  9997
2 34204  98.2122 266.3958 0001597  63.8004 296.3390 15.14635964545326
1 34205U 99057RG  10131.35741025 +.00008397 +00000-0 +19700-2 0  9993
2 34205 098.4941 175.7095 0009459 071.8579 289.9205 14.54707145129105
1 34207U 99057RJ  18211.35323610  .00002289  00000-0  30072-3 0  9998
2 34207  98.3007 248.8592 0014205 213.1441 146.8881 14.81233866557006
1 34208U 99057RK  18212.27949769  .00002574  00000-0  28010-3 0  9996
2 34208  98.2811 244.3333 0008437 129.0408 231.1560 14.88971424559854
1 34209U 99057RL  18211.76418011  .00001721  00000-0  28926-3 0  9990
2 34209  98.3250 211.5152 0004733 221.4085 138.6762 14.70964299564956
1 34211U 99057RN  18210.19922228 +.00000322 +00000-0 +75315-4 0  9990
2 34211 098.4493 209.1532 0075438 294.7829 064.5535 14.60000842812071
1 34213U 99057RQ  18212.25657586  .00001858  00000-0  27204-3 0  9991
2 34213  98.2882 228.1088 0011171 113.7020 308.3430 14.76855649580128
1 34214U 99057RR  18212.00997495  .00007815  00000-0  47127-3 0  9996
2 34214  98.2117 281.6893 0001704 102.3230 257.8189 15.11063852574596
1 34215U 99057RS  18208.17638584 +.00001120 +00000-0 +24215-3 0  9997
2 34215 098.3725 185.4941 0006846 003.6899 356.4350 14.60242248175992
1 34216U 99057RT  14043.15707469 +.00004570 +00000-0 +45308-3 0  9996
2 34216 098.1287 171.2447 0004596 219.1376 264.7215 14.92312977342733
1 34217U 99057RU  18209.94317406 +.00004551 +00000-0 +41795-3 0  9995
2 34217 098.2088 203.3342 0014686 132.9757 227.2697 14.95295050573820
1 34220U 01049PQ  15357.22596365  .00003417  00000-0  13459-3 0  9994
2 34220  98.1773 348.9789 0008434  86.5561 273.6640 15.26385840629193
1 34221U 01049PR  18211.35695654 -.00000437  00000-0 -26182-4 0  9991
2 34221  98.5445 178.3415 0074502 320.2537  39.3239 15.01144608882870
1 34223U 02024H   18211.74756259 +.00000248 +00000-0 +17811-3 0  9995
2 34223 099.1823 194.7261 0133155 027.3345 333.4746 14.01918851807913
1 34224U 06006AP  18211.22301841  .00000313  00000-0  85032-3 0  9999
2 34224  52.1117 160.6441 5027056 140.8714 269.2838  5.26848695197026
1 34226U 06006AR  18049.49311893  .00002163  00000-0  19082-2 0  9993
2 34226  51.6700 110.1122 5027033 256.1729  45.1464  5.41300501191923
1 34227U 06006AS  18208.02959260 +.00000096 +00000-0 +54805-3 0  9992
2 34227 052.0115 070.5453 4915845 233.4243 333.1896 05.38472954200591
1 34228U 06006AT  11337.07599237 +.00086168 +00000-0 +30133-1 0  9998
2 34228 051.8664 211.9560 4577633 170.6514 354.1589 06.25036147076185
1 34229U 06006AU  18009.32360739  .00006549  00000-0  28097-2 0  9995
2 34229  51.4167 112.1454 4505833 210.6617 112.9037  6.34739125204789
1 34230U 06006AV  18106.15916284  .00000185  00000-0  20302-3 0  9990
2 34230  51.4138 119.3291 5051028 235.3600  66.3577  5.32398254193820
1 34231U 06006AW  17161.55389459 +.00001986 +00000-0 +94502-2 0  9995
2 34231 052.2249 251.6724 5061846 192.5310 150.8561 05.12434176167415
1 34232U 06006AX  10188.84941953 +.00027218 +00000-0 +13005-1 0  9997
2 34232 051.6387 013.0302 5062914 165.2742 218.0214 05.42263510042517
1 34233U 06006AY  18087.46868579  .00015499  00000-0  24027-1 0  9998
2 34233  52.2117 137.1761 4869952 158.0275 234.1058  5.58643941194060
1 34234U 06006AZ  18212.31973784  .00001394  00000-0  77148-3 0  9991
2 34234  51.5486 185.5862 4830702 117.0704 299.8050  5.78220280206449
1 34235U 06006BA  18044.61826835  .00000515  00000-0  77905-3 0  9997
2 34235  51.6925 152.2920 5030396 221.8249  86.3350  5.36125851189922
1 34236U 06006BB  17247.12820478  .00000422  00000-0  34620-3 0  9999
2 34236  51.6575 160.2766 5004110 217.4451  94.2305  5.48815189183400
1 34237U 06006BC  14231.07464448 +.00002331 +00000-0 +35286-2 0  9994
2 34237 051.7761 025.4036 4999229 231.5630 072.0905 05.39101773120194
1 34238U 06006BD  18111.61863099  .00000795  00000-0  14402-2 0  9990
2 34238  51.6927 222.5978 5083257 182.7204 173.3308  5.24195058188596
1 34239U 06006BE  18210.50359411 +.00004013 +00000-0 +98265-2 0  9993
2 34239 050.4932 260.9619 2314194 210.4236 133.9563 09.77400222359708
1 34241U 06006BG  18191.33728624 -.00000294 +00000-0 -76810-3 0  9993
2 34241 051.8097 078.9370 4952297 261.2721 319.4077 05.35822368100452
1 34242U 06006BH  18211.17787479  .00000005  00000-0  00000+0 0  9994
2 34242  54.6800 140.3554 4847471 129.8195 284.0959  4.98485631192414
1 34243U 06006BJ  18183.23725882  .00000077  00000-0  11795-3 0  9996
2 34243  51.6381  91.6963 5090150 275.6031  30.9498  5.28477096203310
1 34244U 06006BK  18037.45010581  .00003510  00000-0  62069-2 0  9996
2 34244  51.9146  97.7482 4899581 206.3974 118.8597  5.52497676201752
1 34245U 06006BL  12141.60882022 +.00013363 +00000-0 +13065-1 0  9999
2 34245 051.8877 215.4324 4797855 176.0028 355.5973 05.76387557087708
1 34246U 06006BM  18205.76292332 +.00003977 +00000-0 +35507-2 0  9999
2 34246 051.5343 120.9312 4595432 165.8786 213.4244 06.10613114127691
1 34247U 06006BN  18212.08613714  .00000380  00000-0  84138-3 0  9994
2 34247  52.1483  68.3481 4964369 210.9580 346.9395  5.40790145206531
1 34248U 06006BP  18211.81147643 +.00000929 +00000-0 +41455-3 0  9992
2 34248 051.6221 155.8528 4882077 124.6919 291.4464 05.72348689124865
1 34250U 06006BR  18204.25193877 -.00000161 +00000-0 -15548-3 0  9999
2 34250 051.7054 112.5607 5086924 249.3127 050.5363 05.24839220203082
1 34252U 06006BT  18205.30187903 -.00000076 +00000-0 -23134-4 0  9997
2 34252 051.6438 097.0883 5117902 270.8549 033.5431 05.23005858201806
1 34254U 06006BV  18208.89368147 +.00004054 +00000-0 +30589-2 0  9995
2 34254 051.6165 066.3172 4589231 201.2675 131.0367 06.13733699211084
1 34255U 06006BW  16102.88749763  .00002501  00000-0  39781-2 0  9991
2 34255  52.0959 325.6212 4872235 139.8572 268.9364  5.57912728152516
1 34256U 06006BX  18211.52382125  .00000051  00000-0  15957-3 0  9999
2 34256  51.8864 251.2810 5088101 111.1798  12.9661  5.17451418190319
1 34257U 06006BY  18211.30002257  .00000073  00000-0  16509-3 0  9999
2 34257  52.0982 218.1474 5062356 103.2918   4.9068  5.21416032193977
